OBJECT_NAME,OBJECT_ID,EPOCH,MEAN_MOTION,ECCENTRICITY,INCLINATION,RA_OF_ASC_NODE,ARG_OF_PERICENTER,MEAN_ANOMALY,EPHEMERIS_TYPE,CLASSIFICATION_TYPE,NORAD_CAT_ID,ELEMENT_SET_NO,REV_AT_EPOCH,BSTAR,MEAN_MOTION_DOT,MEAN_MOTION_DDOT
BEIDOU-2 IGSO-5 (C10),2011-073A,2026-07-02T17:30:18.330912,1.00270596,.01145273,47.6496,271.3544,222.0502,141.5350,0,U,37948,999,5329,0,-.128E-5,0
LUCH 5A (SDCM/PRN 140),2011-074B,2026-07-07T12:08:07.923264,1.00272612,.0002595,8.8021,73.5096,53.1029,147.8484,0,U,37951,999,5325,0,-.4E-6,0
BEIDOU-2 G5 (C05),2012-008A,2026-07-07T03:45:36.687168,1.00268677,.0007429,3.6203,69.5757,273.5139,57.1746,0,U,38091,999,5256,0,.7E-6,0
BEIDOU-2 M3 (C11),2012-018A,2026-07-05T23:34:25.155840,1.86230201,.0020688,55.7406,304.2424,272.8560,86.9284,0,U,38250,999,9629,0,-.61E-6,0
BEIDOU-2 M4 (C12),2012-018B,2026-07-05T21:56:58.537824,1.86229838,.0011824,55.6406,303.4567,273.7127,86.1743,0,U,38251,999,9629,0,-.61E-6,0
SES-5 (EGNOS/PRN 136),2012-036A,2026-07-07T05:12:57.433824,1.00272696,.0002028,0.0479,314.4326,154.8710,259.1101,0,U,38652,999,4465,0,.49E-6,0
BEIDOU-2 M6 (C14),2012-050B,2026-07-07T05:38:31.418304,1.86230940,.001313,56.5614,62.2316,0.5124,359.5520,0,U,38775,999,9368,0,-.43E-6,0
GSAT-10 (GAGAN/PRN 128),2012-051B,2026-07-07T12:25:30.234720,1.00269296,.0007825,0.0401,241.6547,213.4040,99.7846,0,U,38779,999,5030,0,-.149E-5,0
GPS BIIF-3  (PRN 24),2012-053A,2026-07-07T06:12:44.722080,2.00567789,.0181499,53.5887,142.7772,66.0832,295.7851,0,U,38833,999,9984,0,.66E-6,0
GSAT0103 (GALILEO-FM3),2012-055A,2026-07-05T01:45:34.213824,1.70473389,.0004125,55.8163,101.0549,308.6335,51.3483,0,U,38857,999,8531,0,.1E-7,0
BEIDOU-2 G6 (C02),2012-059A,2026-07-07T07:18:08.284320,1.00269050,.0009105,4.4692,73.3107,330.2059,75.2705,0,U,38953,999,5011,0,-.162E-5,0
LUCH 5B (SDCM/PRN 125),2012-061A,2026-07-07T10:14:43.874880,1.00271756,.0003487,10.5244,49.6770,139.6998,233.4585,0,U,38977,999,4981,0,-.129E-5,0
COSMOS 2485 (747),2013-019A,2026-07-07T02:06:57.361824,2.13103480,.0022942,65.4303,72.9368,232.1450,127.7096,0,U,39155,999,10270,0,-.19E-6,0
GPS BIIF-4  (PRN 27),2013-023A,2026-07-07T03:01:56.404128,2.00563366,.0141401,54.4888,268.1608,51.1024,310.2139,0,U,39166,999,9628,0,-.1E-6,0
IRNSS-1A,2013-034A,2026-07-05T17:31:35.683968,1.00280420,.00178584,35.7606,63.6043,181.6646,356.4955,0,U,39199,999,4755,0,.68E-6,0
GPS BIIF-5  (PRN 30),2014-008A,2026-07-07T03:04:32.948832,2.00561052,.0084185,53.6571,148.5066,231.4975,127.7260,0,U,39533,999,9008,0,.76E-6,0
ASTRA 5B (EGNOS/PRN 123),2014-011B,2026-07-07T12:08:37.326048,1.00270784,.0001912,0.0682,308.4617,160.6923,21.9690,0,U,39617,999,4487,0,.152E-5,0
COSMOS 2492 (754),2014-012A,2026-07-07T12:23:26.960928,2.13103517,.0010306,65.2849,313.2456,320.1215,39.8145,0,U,39620,999,9567,0,-.49E-6,0
IRNSS-1B,2014-017A,2026-07-05T17:31:20.708256,1.00272765,.00229695,28.8929,240.0829,195.5386,165.9835,0,U,39635,999,4498,0,.137E-5,0
LUCH 5V (SDCM/PRN 141),2014-023A,2026-07-07T01:54:38.873376,1.00268009,.0002712,5.1790,69.5465,64.1093,274.7524,0,U,39727,999,4455,0,-.255E-5,0
GPS BIIF-6  (PRN 06),2014-026A,2026-07-07T09:41:46.032864,2.00559488,.0038113,56.4876,330.7309,326.0053,33.7555,0,U,39741,999,8894,0,-.69E-6,0
COSMOS 2500 (755),2014-032A,2026-07-07T05:11:48.297408,2.13106140,.0007971,65.2207,313.0011,188.6383,171.3606,0,U,40001,999,9388,0,-.48E-6,0
GPS BIIF-7  (PRN 09),2014-045A,2026-07-06T00:00:01.677888,2.00559674,.00341035,55.3649,87.7155,118.3151,242.0701,0,U,40105,999,8645,0,-.13E-6,0
GSAT0201 (GALILEO 5),2014-050A,2026-07-05T04:52:57.756000,1.85520009,.1677026,48.8557,272.6971,180.0981,179.9258,0,U,40128,999,7865,0,-.32E-6,0
GSAT0202 (GALILEO 6),2014-050B,2026-07-05T23:56:58.854624,1.85520580,.1678484,48.8715,271.7502,180.8497,178.8849,0,U,40129,999,8083,0,-.31E-6,0
IRNSS-1C,2014-061A,2026-07-07T07:17:53.306880,1.00273588,.0022126,6.5677,88.5481,4.6264,24.5735,0,U,40269,999,4289,0,-.15E-5,0
GPS BIIF-8  (PRN 03),2014-068A,2026-07-06T20:46:19.760736,2.00577397,.0067431,57.0010,30.1972,71.2772,289.5066,0,U,40294,999,8560,0,-.53E-6,0
COSMOS 2501 (702K),2014-075A,2026-07-06T12:58:02.119584,2.13101455,.0022679,63.6180,189.7021,212.6524,147.2323,0,U,40315,999,9026,0,.114E-5,0
GPS BIIF-9  (PRN 26),2015-013A,2026-07-07T00:09:37.306656,2.00550184,.011007,53.1668,203.3578,40.3021,320.5512,0,U,40534,999,8222,0,.101E-5,0
GSAT0203 (GALILEO 7),2015-017A,2026-07-07T03:45:32.571072,1.70476196,.0002413,56.7798,341.0522,261.2011,98.7722,0,U,40544,999,6954,0,-.72E-6,0
GSAT0204 (GALILEO 8),2015-017B,2026-07-07T09:53:57.571296,1.70475727,.0002551,56.7861,341.0638,235.3414,124.6352,0,U,40545,999,3258,0,-.72E-6,0
